{"type": "FeatureCollection", "features": [{"type": "Feature", "properties": {"norad_id": 37846, "name": "GSAT0101 (GALILEO-PFM)", "group": "galileo", "lat": -32.7778758621368, "lon": -37.83501854972294, "alt_km": 23217.470155183022, "timestamp": "2025-12-11T15:53:39.805240+00:00", "meta": {"OBJECT_NAME": "GSAT0101 (GALILEO-PFM)", "OBJECT_ID": "2011-060A", "EPOCH": "2025-12-08T19:04:30.018432", "MEAN_MOTION": 1.70475601, "ECCENTRICITY": 0.00029509, "INCLINATION": 57.0536, "RA_OF_ASC_NODE": 346.9268, "ARG_OF_PERICENTER": 313.0699, "MEAN_ANOMALY": 46.9223, "EPHEMERIS_TYPE": 0, "CLASSIFICATION_TYPE": "U", "NORAD_CAT_ID": 37846, "ELEMENT_SET_NO": 999, "REV_AT_EPOCH": 8787, "BSTAR": 0, "MEAN_MOTION_DOT": -8.7e-07, "MEAN_MOTION_DDOT": 0}, "tle": {"line1": "1 37846U 11060A   25342.79479188 -.00000087  00000+0  00000+0 0  9999", "line2": "2 37846  57.0536 346.9268 0002950 313.0699  46.9223  1.70475601 87878"}}, "geometry": {"type": "Point", "coordinates": [-37.83501854972294, -32.7778758621368]}}, {"type": "Feature", "properties": {"norad_id": 37847, "name": "GSAT0102 (GALILEO-FM2)", "group": "galileo", "lat": 4.459946006950516, "lon": -10.252197257583152, "alt_km": 23213.643437186776, "timestamp": "2025-12-11T15:53:39.805263+00:00", "meta": {"OBJECT_NAME": "GSAT0102 (GALILEO-FM2)", "OBJECT_ID": "2011-060B", "EPOCH": "2025-12-10T12:23:27.701376", "MEAN_MOTION": 1.70475849, "ECCENTRICITY": 0.00049481, "INCLINATION": 57.054, "RA_OF_ASC_NODE": 346.8806, "ARG_OF_PERICENTER": 308.752, "MEAN_ANOMALY": 73.2267, "EPHEMERIS_TYPE": 0, "CLASSIFICATION_TYPE": "U", "NORAD_CAT_ID": 37847, "ELEMENT_SET_NO": 999, "REV_AT_EPOCH": 8791, "BSTAR": 0, "MEAN_MOTION_DOT": -8.8e-07, "MEAN_MOTION_DDOT": 0}, "tle": {"line1": "1 37847U 11060B   25344.51629284 -.00000088  00000+0  00000+0 0  9997", "line2": "2 37847  57.0540 346.8806 0004948 308.7520  73.2267  1.70475849 87914"}}, "geometry": {"type": "Point", "coordinates": [-10.252197257583152, 4.459946006950516]}}, {"type": "Feature", "properties": {"norad_id": 38857, "name": "GSAT0103 (GALILEO-FM3)", "group": "galileo", "lat": -48.36881506153782, "lon": 56.55421351456654, "alt_km": 23220.862694582418, "timestamp": "2025-12-11T15:53:39.805277+00:00", "meta": {"OBJECT_NAME": "GSAT0103 (GALILEO-FM3)", "OBJECT_ID": "2012-055A", "EPOCH": "2025-12-10T14:16:18.944544", "MEAN_MOTION": 1.70473311, "ECCENTRICITY": 0.00025926, "INCLINATION": 55.6913, "RA_OF_ASC_NODE": 106.7254, "ARG_OF_PERICENTER": 268.6178, "MEAN_ANOMALY": 91.322, "EPHEMERIS_TYPE": 0, "CLASSIFICATION_TYPE": "U", "NORAD_CAT_ID": 38857, "ELEMENT_SET_NO": 999, "REV_AT_EPOCH": 8179, "BSTAR": 0, "MEAN_MOTION_DOT": 1.1e-07, "MEAN_MOTION_DDOT": 0}, "tle": {"line1": "1 38857U 12055A   25344.59466371  .00000011  00000+0  00000+0 0  9993", "line2": "2 38857  55.6913 106.7254 0002592 268.6178  91.3220  1.70473311 81792"}}, "geometry": {"type": "Point", "coordinates": [56.55421351456654, -48.36881506153782]}}, {"type": "Feature", "properties": {"norad_id": 40128, "name": "GSAT0201 (GALILEO 5)", "group": "galileo", "lat": -47.220463723350896, "lon": 170.5240084320611, "alt_km": 20382.8830670832, "timestamp": "2025-12-11T15:53:39.805290+00:00", "meta": {"OBJECT_NAME": "GSAT0201 (GALILEO 5)", "OBJECT_ID": "2014-050A", "EPOCH": "2025-12-09T03:42:58.517280", "MEAN_MOTION": 1.8551953, "ECCENTRICITY": 0.164755, "INCLINATION": 49.0809, "RA_OF_ASC_NODE": 281.2097, "ARG_OF_PERICENTER": 172.1436, "MEAN_ANOMALY": 190.8359, "EPHEMERIS_TYPE": 0, "CLASSIFICATION_TYPE": "U", "NORAD_CAT_ID": 40128, "ELEMENT_SET_NO": 999, "REV_AT_EPOCH": 7479, "BSTAR": 0, "MEAN_MOTION_DOT": -7.1e-07, "MEAN_MOTION_DDOT": 0}, "tle": {"line1": "1 40128U 14050A   25343.15484395 -.00000071  00000+0  00000+0 0  9998", "line2": "2 40128  49.0809 281.2097 1647550 172.1436 190.8359  1.85519530 74797"}}, "geometry": {"type": "Point", "coordinates": [170.5240084320611, -47.220463723350896]}}, {"type": "Feature", "properties": {"norad_id": 40129, "name": "GSAT0202 (GALILEO 6)", "group": "galileo", "lat": 35.03631497806693, "lon": -42.443152835415155, "alt_km": 23560.77844048469, "timestamp": "2025-12-11T15:53:39.805303+00:00", "meta": {"OBJECT_NAME": "GSAT0202 (GALILEO 6)", "OBJECT_ID": "2014-050B", "EPOCH": "2025-12-08T20:55:50.636640", "MEAN_MOTION": 1.85520286, "ECCENTRICITY": 0.16482545, "INCLINATION": 49.097, "RA_OF_ASC_NODE": 280.3049, "ARG_OF_PERICENTER": 172.8865, "MEAN_ANOMALY": 189.8198, "EPHEMERIS_TYPE": 0, "CLASSIFICATION_TYPE": "U", "NORAD_CAT_ID": 40129, "ELEMENT_SET_NO": 999, "REV_AT_EPOCH": 7695, "BSTAR": 0, "MEAN_MOTION_DOT": -6.8e-07, "MEAN_MOTION_DDOT": 0}, "tle": {"line1": "1 40129U 14050B   25342.87211385 -.00000068  00000+0  00000+0 0  9990", "line2": "2 40129  49.0970 280.3049 1648254 172.8865 189.8198  1.85520286 76958"}}, "geometry": {"type": "Point", "coordinates": [-42.443152835415155, 35.03631497806693]}}, {"type": "Feature", "properties": {"norad_id": 40544, "name": "GSAT0203 (GALILEO 7)", "group": "galileo", "lat": 56.35819740717181, "lon": 87.50792552921895, "alt_km": 23234.798673879013, "timestamp": "2025-12-11T15:53:39.805315+00:00", "meta": {"OBJECT_NAME": "GSAT0203 (GALILEO 7)", "OBJECT_ID": "2015-017A", "EPOCH": "2025-12-07T23:40:17.742144", "MEAN_MOTION": 1.70475816, "ECCENTRICITY": 0.00065218, "INCLINATION": 56.8473, "RA_OF_ASC_NODE": 346.8096, "ARG_OF_PERICENTER": 270.7048, "MEAN_ANOMALY": 89.2382, "EPHEMERIS_TYPE": 0, "CLASSIFICATION_TYPE": "U", "NORAD_CAT_ID": 40544, "ELEMENT_SET_NO": 999, "REV_AT_EPOCH": 6594, "BSTAR": 0, "MEAN_MOTION_DOT": -8.6e-07, "MEAN_MOTION_DDOT": 0}, "tle": {"line1": "1 40544U 15017A   25341.98631646 -.00000086  00000+0  00000+0 0  9992", "line2": "2 40544  56.8473 346.8096 0006521 270.7048  89.2382  1.70475816 65945"}}, "geometry": {"type": "Point", "coordinates": [87.50792552921895, 56.35819740717181]}}, {"type": "Feature", "properties": {"norad_id": 40545, "name": "GSAT0204 (GALILEO 8)", "group": "galileo", "lat": -46.94046691094488, "lon": -57.64796190940528, "alt_km": 23212.458215332488, "timestamp": "2025-12-11T15:53:39.805327+00:00", "meta": {"OBJECT_NAME": "GSAT0204 (GALILEO 8)", "OBJECT_ID": "2015-017B", "EPOCH": "2025-12-11T04:11:34.346112", "MEAN_MOTION": 1.70475574, "ECCENTRICITY": 0.0006249, "INCLINATION": 56.853, "RA_OF_ASC_NODE": 346.7403, "ARG_OF_PERICENTER": 262.765, "MEAN_ANOMALY": 97.1808, "EPHEMERIS_TYPE": 0, "CLASSIFICATION_TYPE": "U", "NORAD_CAT_ID": 40545, "ELEMENT_SET_NO": 999, "REV_AT_EPOCH": 2904, "BSTAR": 0, "MEAN_MOTION_DOT": -8.8e-07, "MEAN_MOTION_DDOT": 0}, "tle": {"line1": "1 40545U 15017B   25345.17470308 -.00000088  00000+0  00000+0 0  9996", "line2": "2 40545  56.8530 346.7403 0006249 262.7650  97.1808  1.70475574 29041"}}, "geometry": {"type": "Point", "coordinates": [-57.64796190940528, -46.94046691094488]}}, {"type": "Feature", "properties": {"norad_id": 40889, "name": "GSAT0205 (GALILEO 9)", "group": "galileo", "lat": 54.10301438267765, "lon": -57.95878779351102, "alt_km": 23203.12748848504, "timestamp": "2025-12-11T15:53:39.805339+00:00", "meta": {"OBJECT_NAME": "GSAT0205 (GALILEO 9)", "OBJECT_ID": "2015-045A", "EPOCH": "2025-12-10T08:33:32.148576", "MEAN_MOTION": 1.7047308, "ECCENTRICITY": 0.0005904, "INCLINATION": 55.0041, "RA_OF_ASC_NODE": 226.8241, "ARG_OF_PERICENTER": 38.7722, "MEAN_ANOMALY": 321.3515, "EPHEMERIS_TYPE": 0, "CLASSIFICATION_TYPE": "U", "NORAD_CAT_ID": 40889, "ELEMENT_SET_NO": 999, "REV_AT_EPOCH": 6379, "BSTAR": 0, "MEAN_MOTION_DOT": 9e-08, "MEAN_MOTION_DDOT": 0}, "tle": {"line1": "1 40889U 15045A   25344.35662209  .00000009  00000+0  00000+0 0  9992", "line2": "2 40889  55.0041 226.8241 0005904  38.7722 321.3515  1.70473080 63793"}}, "geometry": {"type": "Point", "coordinates": [-57.95878779351102, 54.10301438267765]}}, {"type": "Feature", "properties": {"norad_id": 40890, "name": "GSAT0206 (GALILEO 10)", "group": "galileo", "lat": -41.58982809981011, "lon": -171.61494775112607, "alt_km": 23227.325151635254, "timestamp": "2025-12-11T15:53:39.805350+00:00", "meta": {"OBJECT_NAME": "GSAT0206 (GALILEO 10)", "OBJECT_ID": "2015-045B", "EPOCH": "2025-12-09T23:46:35.187456", "MEAN_MOTION": 1.70473081, "ECCENTRICITY": 0.0003825, "INCLINATION": 55.0033, "RA_OF_ASC_NODE": 226.8293, "ARG_OF_PERICENTER": 36.5835, "MEAN_ANOMALY": 323.5254, "EPHEMERIS_TYPE": 0, "CLASSIFICATION_TYPE": "U", "NORAD_CAT_ID": 40890, "ELEMENT_SET_NO": 999, "REV_AT_EPOCH": 6381, "BSTAR": 0, "MEAN_MOTION_DOT": 9e-08, "MEAN_MOTION_DDOT": 0}, "tle": {"line1": "1 40890U 15045B   25343.99068504  .00000009  00000+0  00000+0 0  9991", "line2": "2 40890  55.0033 226.8293 0003825  36.5835 323.5254  1.70473081 63812"}}, "geometry": {"type": "Point", "coordinates": [-171.61494775112607, -41.58982809981011]}}, {"type": "Feature", "properties": {"norad_id": 41174, "name": "GSAT0209 (GALILEO 12)", "group": "galileo", "lat": -18.617810321360995, "lon": -60.32423426491074, "alt_km": 23230.954025868068, "timestamp": "2025-12-11T15:53:39.805362+00:00", "meta": {"OBJECT_NAME": "GSAT0209 (GALILEO 12)", "OBJECT_ID": "2015-079A", "EPOCH": "2025-12-08T09:34:38.512704", "MEAN_MOTION": 1.70474355, "ECCENTRICITY": 0.00023972, "INCLINATION": 55.7104, "RA_OF_ASC_NODE": 106.5001, "ARG_OF_PERICENTER": 353.8677, "MEAN_ANOMALY": 6.0907, "EPHEMERIS_TYPE": 0, "CLASSIFICATION_TYPE": "U", "NORAD_CAT_ID": 41174, "ELEMENT_SET_NO": 999, "REV_AT_EPOCH": 6152, "BSTAR": 0, "MEAN_MOTION_DOT": 1e-07, "MEAN_MOTION_DDOT": 0}, "tle": {"line1": "1 41174U 15079A   25342.39905686  .00000010  00000+0  00000+0 0  9990", "line2": "2 41174  55.7104 106.5001 0002397 353.8677   6.0907  1.70474355 61526"}}, "geometry": {"type": "Point", "coordinates": [-60.32423426491074, -18.617810321360995]}}]}